CCSDS_OMM_VERS = 2.0
CREATION_DATE  = 
ORIGINATOR     = 

OBJECT_NAME    = SL-3 R/B
OBJECT_ID      = 1982-079B
CENTER_NAME    = EARTH
REF_FRAME      = TEME
TIME_SYSTEM    = UTC
MEAN_ELEMENT_THEORY = SGP/SGP4

EPOCH          = 2026-01-01T06:00:46.480608
MEAN_MOTION    = 15.23853604
ECCENTRICITY   = .00264656
INCLINATION    = 81.1476
RA_OF_ASC_NODE = 272.6598
ARG_OF_PERICENTER = 36.3682
MEAN_ANOMALY   = 323.9342

EPHEMERIS_TYPE = 0
CLASSIFICATION_TYPE = U
NORAD_CAT_ID   = 13403
ELEMENT_SET_NO = 999
REV_AT_EPOCH   = 36742
BSTAR          = .36953147E-3
MEAN_MOTION_DOT = .9026E-4
MEAN_MOTION_DDOT = 0

CCSDS_OMM_VERS = 2.0
CREATION_DATE  = 
ORIGINATOR     = 

OBJECT_NAME    = SL-14 R/B
OBJECT_ID      = 1982-092B
CENTER_NAME    = EARTH
REF_FRAME      = TEME
TIME_SYSTEM    = UTC
MEAN_ELEMENT_THEORY = SGP/SGP4

EPOCH          = 2026-01-01T00:24:46.434240
MEAN_MOTION    = 14.86577167
ECCENTRICITY   = .0020744
INCLINATION    = 82.5670
RA_OF_ASC_NODE = 204.6825
ARG_OF_PERICENTER = 161.7857
MEAN_ANOMALY   = 357.9779

EPHEMERIS_TYPE = 0
CLASSIFICATION_TYPE = U
NORAD_CAT_ID   = 13553
ELEMENT_SET_NO = 999
REV_AT_EPOCH   = 31887
BSTAR          = .91856545E-4
MEAN_MOTION_DOT = .841E-5
MEAN_MOTION_DDOT = 0

CCSDS_OMM_VERS = 2.0
CREATION_DATE  = 
ORIGINATOR     = 

OBJECT_NAME    = SL-3 R/B
OBJECT_ID      = 1983-010B
CENTER_NAME    = EARTH
REF_FRAME      = TEME
TIME_SYSTEM    = UTC
MEAN_ELEMENT_THEORY = SGP/SGP4

EPOCH          = 2026-01-01T06:46:43.591008
MEAN_MOTION    = 15.44067288
ECCENTRICITY   = .00163157
INCLINATION    = 81.1052
RA_OF_ASC_NODE = 84.7554
ARG_OF_PERICENTER = 281.0407
MEAN_ANOMALY   = 78.9002

EPHEMERIS_TYPE = 0
CLASSIFICATION_TYPE = U
NORAD_CAT_ID   = 13819
ELEMENT_SET_NO = 999
REV_AT_EPOCH   = 34753
BSTAR          = .44170907E-3
MEAN_MOTION_DOT = .20326E-3
MEAN_MOTION_DDOT = 0

CCSDS_OMM_VERS = 2.0
CREATION_DATE  = 
ORIGINATOR     = 

OBJECT_NAME    = SL-3 R/B
OBJECT_ID      = 1983-075B
CENTER_NAME    = EARTH
REF_FRAME      = TEME
TIME_SYSTEM    = UTC
MEAN_ELEMENT_THEORY = SGP/SGP4

EPOCH          = 2026-01-01T06:16:55.408224
MEAN_MOTION    = 15.36589899
ECCENTRICITY   = .00244494
INCLINATION    = 97.6103
RA_OF_ASC_NODE = 3.4069
ARG_OF_PERICENTER = 109.1216
MEAN_ANOMALY   = 251.2677

EPHEMERIS_TYPE = 0
CLASSIFICATION_TYPE = U
NORAD_CAT_ID   = 14208
ELEMENT_SET_NO = 999
REV_AT_EPOCH   = 31979
BSTAR          = .45206724E-3
MEAN_MOTION_DOT = .16237E-3
MEAN_MOTION_DDOT = 0

CCSDS_OMM_VERS = 2.0
CREATION_DATE  = 
ORIGINATOR     = 

OBJECT_NAME    = COSMOS 1536
OBJECT_ID      = 1984-013A
CENTER_NAME    = EARTH
REF_FRAME      = TEME
TIME_SYSTEM    = UTC
MEAN_ELEMENT_THEORY = SGP/SGP4

EPOCH          = 2025-12-31T22:19:33.051360
MEAN_MOTION    = 15.22784637
ECCENTRICITY   = .00149655
INCLINATION    = 82.5444
RA_OF_ASC_NODE = 175.1291
ARG_OF_PERICENTER = 156.8289
MEAN_ANOMALY   = 203.3625

EPHEMERIS_TYPE = 0
CLASSIFICATION_TYPE = U
NORAD_CAT_ID   = 14699
ELEMENT_SET_NO = 999
REV_AT_EPOCH   = 26230
BSTAR          = .46955541E-3
MEAN_MOTION_DOT = .11038E-3
MEAN_MOTION_DDOT = 0

CCSDS_OMM_VERS = 2.0
CREATION_DATE  = 
ORIGINATOR     = 

OBJECT_NAME    = SL-14 R/B
OBJECT_ID      = 1984-027B
CENTER_NAME    = EARTH
REF_FRAME      = TEME
TIME_SYSTEM    = UTC
MEAN_ELEMENT_THEORY = SGP/SGP4

EPOCH          = 2026-01-01T06:52:46.486560
MEAN_MOTION    = 14.85899252
ECCENTRICITY   = .00175287
INCLINATION    = 82.5429
RA_OF_ASC_NODE = 308.2261
ARG_OF_PERICENTER = 191.8895
MEAN_ANOMALY   = 168.1910

EPHEMERIS_TYPE = 0
CLASSIFICATION_TYPE = U
NORAD_CAT_ID   = 14820
ELEMENT_SET_NO = 999
REV_AT_EPOCH   = 23762
BSTAR          = .10422916E-3
MEAN_MOTION_DOT = .935E-5
MEAN_MOTION_DDOT = 0

CCSDS_OMM_VERS = 2.0
CREATION_DATE  = 
ORIGINATOR     = 

OBJECT_NAME    = SL-8 R/B
OBJECT_ID      = 1985-006B
CENTER_NAME    = EARTH
REF_FRAME      = TEME
TIME_SYSTEM    = UTC
MEAN_ELEMENT_THEORY = SGP/SGP4

EPOCH          = 2026-01-01T05:43:35.555808
MEAN_MOTION    = 14.37735672
ECCENTRICITY   = .00194942
INCLINATION    = 74.0458
RA_OF_ASC_NODE = 25.2585
ARG_OF_PERICENTER = 313.7755
MEAN_ANOMALY   = 129.1811

EPHEMERIS_TYPE = 0
CLASSIFICATION_TYPE = U
NORAD_CAT_ID   = 15483
ELEMENT_SET_NO = 999
REV_AT_EPOCH   = 14433
BSTAR          = .19494078E-3
MEAN_MOTION_DOT = .561E-5
MEAN_MOTION_DDOT = 0

CCSDS_OMM_VERS = 2.0
CREATION_DATE  = 
ORIGINATOR     = 

OBJECT_NAME    = SL-12 R/B(2)
OBJECT_ID      = 1985-042D
CENTER_NAME    = EARTH
REF_FRAME      = TEME
TIME_SYSTEM    = UTC
MEAN_ELEMENT_THEORY = SGP/SGP4

EPOCH          = 2026-01-01T02:26:22.905600
MEAN_MOTION    = 14.21958104
ECCENTRICITY   = .00370646
INCLINATION    = 71.1066
RA_OF_ASC_NODE = 230.5172
ARG_OF_PERICENTER = 233.0231
MEAN_ANOMALY   = 240.6901

EPHEMERIS_TYPE = 0
CLASSIFICATION_TYPE = U
NORAD_CAT_ID   = 15772
ELEMENT_SET_NO = 999
REV_AT_EPOCH   = 10478
BSTAR          = .10165493E-3
MEAN_MOTION_DOT = .178E-5
MEAN_MOTION_DDOT = 0

CCSDS_OMM_VERS = 2.0
CREATION_DATE  = 
ORIGINATOR     = 

OBJECT_NAME    = SL-14 R/B
OBJECT_ID      = 1985-069B
CENTER_NAME    = EARTH
REF_FRAME      = TEME
TIME_SYSTEM    = UTC
MEAN_ELEMENT_THEORY = SGP/SGP4

EPOCH          = 2026-01-01T07:00:24.399648
MEAN_MOTION    = 14.86350176
ECCENTRICITY   = .00200754
INCLINATION    = 82.5271
RA_OF_ASC_NODE = 88.3224
ARG_OF_PERICENTER = 58.3176
MEAN_ANOMALY   = 301.9994

EPHEMERIS_TYPE = 0
CLASSIFICATION_TYPE = U
NORAD_CAT_ID   = 15945
ELEMENT_SET_NO = 999
REV_AT_EPOCH   = 16282
BSTAR          = .10195482E-3
MEAN_MOTION_DOT = .926E-5
MEAN_MOTION_DDOT = 0

CCSDS_OMM_VERS = 2.0
CREATION_DATE  = 
ORIGINATOR     = 

OBJECT_NAME    = SL-16 R/B
OBJECT_ID      = 1985-097B
CENTER_NAME    = EARTH
REF_FRAME      = TEME
TIME_SYSTEM    = UTC
MEAN_ELEMENT_THEORY = SGP/SGP4

EPOCH          = 2026-01-01T04:57:59.957280
MEAN_MOTION    = 14.16586725
ECCENTRICITY   = .00078406
INCLINATION    = 71.0030
RA_OF_ASC_NODE = 282.6202
ARG_OF_PERICENTER = 341.7410
MEAN_ANOMALY   = 124.1105

EPHEMERIS_TYPE = 0
CLASSIFICATION_TYPE = U
NORAD_CAT_ID   = 16182
ELEMENT_SET_NO = 999
REV_AT_EPOCH   = 7767
BSTAR          = .41447241E-4
MEAN_MOTION_DOT = .35E-6
MEAN_MOTION_DDOT = 0

CCSDS_OMM_VERS = 2.0
CREATION_DATE  = 
ORIGINATOR     = 

OBJECT_NAME    = SL-14 R/B
OBJECT_ID      = 1986-006B
CENTER_NAME    = EARTH
REF_FRAME      = TEME
TIME_SYSTEM    = UTC
MEAN_ELEMENT_THEORY = SGP/SGP4

EPOCH          = 2026-01-01T06:51:50.024160
MEAN_MOTION    = 14.86700615
ECCENTRICITY   = .00777908
INCLINATION    = 82.5278
RA_OF_ASC_NODE = 323.1597
ARG_OF_PERICENTER = 135.2684
MEAN_ANOMALY   = 225.4843

EPHEMERIS_TYPE = 0
CLASSIFICATION_TYPE = U
NORAD_CAT_ID   = 16496
ELEMENT_SET_NO = 999
REV_AT_EPOCH   = 13919
BSTAR          = .11767591E-3
MEAN_MOTION_DOT = .1133E-4
MEAN_MOTION_DDOT = 0

CCSDS_OMM_VERS = 2.0
CREATION_DATE  = 
ORIGINATOR     = 

OBJECT_NAME    = COSMOS 1743
OBJECT_ID      = 1986-034A
CENTER_NAME    = EARTH
REF_FRAME      = TEME
TIME_SYSTEM    = UTC
MEAN_ELEMENT_THEORY = SGP/SGP4

EPOCH          = 2025-12-31T20:37:26.802336
MEAN_MOTION    = 15.53397849
ECCENTRICITY   = .0005037
INCLINATION    = 82.5349
RA_OF_ASC_NODE = 144.7159
ARG_OF_PERICENTER = 176.8546
MEAN_ANOMALY   = 183.2740

EPHEMERIS_TYPE = 0
CLASSIFICATION_TYPE = U
NORAD_CAT_ID   = 16719
ELEMENT_SET_NO = 999
REV_AT_EPOCH   = 16970
BSTAR          = .65401E-3
MEAN_MOTION_DOT = .41555E-3
MEAN_MOTION_DDOT = 0

