SL-3 R/B                
1 13403U 82079B   26001.25053797  .00009026  00000+0  36953-3 0  9999
2 13403  81.1476 272.6598 0026465  36.3682 323.9342 15.23853604367425
SL-14 R/B               
1 13553U 82092B   26001.01720410  .00000841  00000+0  91857-4 0  9998
2 13553  82.5670 204.6825 0020744 161.7857 357.9779 14.86577167318872
SL-3 R/B                
1 13819U 83010B   26001.28244897  .00020326  00000+0  44171-3 0  9999
2 13819  81.1052  84.7554 0016315 281.0407  78.9002 15.44067288347535
SL-3 R/B                
1 14208U 83075B   26001.26175241  .00016237  00000+0  45207-3 0  9994
2 14208  97.6103   3.4069 0024449 109.1216 251.2677 15.36589899319790
COSMOS 1536             
1 14699U 84013A   25365.93024365  .00011038  00000+0  46956-3 0  9993
2 14699  82.5444 175.1291 0014965 156.8289 203.3625 15.22784637262307
SL-14 R/B               
1 14820U 84027B   26001.28664915  .00000935  00000+0  10423-3 0  9995
2 14820  82.5429 308.2261 0017528 191.8895 168.1910 14.85899252237622
SL-8 R/B                
1 15483U 85006B   26001.23860597  .00000561  00000+0  19494-3 0  9990
2 15483  74.0458  25.2585 0019494 313.7755 129.1811 14.37735672144339
SL-12 R/B(2)            
1 15772U 85042D   26001.10165400  .00000178  00000+0  10165-3 0  9998
2 15772  71.1066 230.5172 0037064 233.0231 240.6901 14.21958104104786
SL-14 R/B               
1 15945U 85069B   26001.29194907  .00000926  00000+0  10195-3 0  9997
2 15945  82.5271  88.3224 0020075  58.3176 301.9994 14.86350176162827
SL-16 R/B               
1 16182U 85097B   26001.20694395  .00000035  00000+0  41447-4 0  9995
2 16182  71.0030 282.6202 0007840 341.7410 124.1105 14.16586725 77678
SL-14 R/B               
1 16496U 86006B   26001.28599565  .00001133  00000+0  11768-3 0  9997
2 16496  82.5278 323.1597 0077790 135.2684 225.4843 14.86700615139198
COSMOS 1743             
1 16719U 86034A   25365.85933799  .00041555  00000+0  65401-3 0  9997
2 16719  82.5349 144.7159 0005037 176.8546 183.2740 15.53397849169702
